METHANESAT              
1 59101U 24043D   26039.25678011  .00004099  00000+0  35764-3 0  9998
2 59101  97.8252 169.8868 0011908  81.7180 278.5391 14.97350571105352
GOSAT-GW (IBUKI GW)     
1 64694U 25141A   26039.25916403  .00001016  00000+0  18747-3 0  9999
2 64694  98.0478 338.7456 0001489  83.4099 276.7275 14.67553704 32933
GHGSAT-C1               
1 46278U 20061G   26039.22452955  .00031594  00000+0  35566-3 0  9999
2 46278  97.2213 120.9314 0002319 133.1173 227.0280 15.62511769303287
GHGSAT-C12              
1 64529U 25135B   26039.26906476  .00005383  00000+0  25845-3 0  9997
2 64529  97.4604 155.4290 0003723 259.2149 100.8666 15.19267345 35245
GHGSAT-C13              
1 64548U 25135W   26039.26679423  .00004653  00000+0  21931-3 0  9998
2 64548  97.4631 155.8086 0001524 141.3977 218.7367 15.19988991 35266
GHGSAT-C2               
1 47509U 21006DA  26039.11115504  .00007605  00000+0  21874-3 0  9994
2 47509  97.2352  88.5924 0003621 272.7967  87.2863 15.36062106280029
GHGSAT-C3               
1 52737U 22057F   26039.29677426  .00009097  00000+0  29331-3 0  9998
2 52737  97.6381 180.4634 0005685 210.3236 149.7677 15.32393891205784
GHGSAT-C4               
1 52746U 22057Q   26039.25090212  .00009342  00000+0  30120-3 0  9997
2 52746  97.6307 179.3783 0006168 195.2775 164.8281 15.32382073205789
GHGSAT-C5               
1 52744U 22057N   26039.26856356  .00009489  00000+0  30598-3 0  9996
2 52744  97.6471 181.8577 0006695 207.9920 152.0962 15.32371054205788
GHGSAT-C6               
1 56204U 23054AC  26039.28476124  .00017433  00000+0  32460-3 0  9990
2 56204  97.3146 307.1952 0009205 138.6110 221.5840 15.48867366158473
GHGSAT-C7               
1 56209U 23054AH  26039.27330053  .00013719  00000+0  27440-3 0  9999
2 56209  97.3101 306.2227 0009470 134.2598 225.9431 15.46849765158442
GHGSAT-C8               
1 56186U 23054J   26039.25664612  .00016279  00000+0  30319-3 0  9995
2 56186  97.3109 306.5688 0006457 150.5187 209.6429 15.48900373158457
SENTINEL-5P             
1 42969U 17064A   26039.28296106  .00000107  00000+0  71913-4 0  9994
2 42969  98.7847 342.3767 0001175  84.0934 276.0376 14.19541603431271
ENMAP                   
1 52159U 22033C   26039.27109034  .00000932  00000+0  14626-3 0  9993
2 52159  97.9777 123.3573 0001340  73.8406 286.2950 14.74932544207655
PRISMA                  
1 44072U 19015A   26039.25952411  .00000938  00000+0  12011-3 0  9999
2 44072  97.8767 115.8882 0001201  75.4838 284.6509 14.83637238372938
SENTINEL-2A             
1 40697U 15028A   26039.25671497  .00000221  00000+0  10092-3 0  9992
2 40697  98.5619 115.9872 0001101  98.2035 261.9273 14.30822050555290
SENTINEL-2B             
1 42063U 17013A   26039.25639522  .00000179  00000+0  84913-4 0  9996
2 42063  98.5619 115.8722 0001086  90.6313 269.4994 14.30820923466201
SENTINEL-2C             
1 60989U 24157A   26039.22150857  .00000160  00000+0  77820-4 0  9995
2 60989  98.5673 115.8618 0001025  78.5830 281.5468 14.30813889 74540
LANDSAT 8               
1 39084U 13008A   26039.20127886  .00000492  00000+0  11930-3 0  9991
2 39084  98.1978 111.4011 0001288  92.8953 267.2393 14.57119473679110
LANDSAT 9               
1 49260U 21088A   26039.16709026  .00000495  00000+0  11990-3 0  9991
2 49260  98.2000 111.4201 0001284  91.6635 268.4710 14.57116392232214
